start=new Date('2022-08-28T00:00:00.000Z').valueOf();
sats=[{"COUNTRY_CODE":"US","MEAN_MOTION_DDOT":"0.0000000000000","ARG_OF_PERICENTER":"50.0178","PERIOD":"95.592","OBJECT_ID":"2021-044A","INCLINATION":"53.0538","REF_FRAME":"TEME","MEAN_ANOMALY":"310.1002","PERIAPSIS":"545.714","CENTER_NAME":"EARTH","BSTAR":"0.00006820400000","TLE_LINE1":"1 48638U 21044A   22239.74227993  .00000734  00000-0  68204-4 0  9999","OBJECT_NAME":"STARLINK-2758","EPOCH":"2022-08-27T17:48:52.985952","TLE_LINE2":"2 48638  53.0538 147.4327 0002177  50.0178 310.1002 15.06397309 69354","FILE":"3548882","EPHEMERIS_TYPE":"0","REV_AT_EPOCH":"6935","NORAD_CAT_ID":"48638","ELEMENT_SET_NO":"999","LAUNCH_DATE":"2021-05-26","MEAN_ELEMENT_THEORY":"SGP4","SEMIMAJOR_AXIS":"6925.357","SITE":"AFETR","TIME_SYSTEM":"UTC","CLASSIFICATION_TYPE":"U","GP_ID":"211134955","OBJECT_TYPE":"PAYLOAD","RCS_SIZE":"LARGE","APOAPSIS":"548.729","MEAN_MOTION_DOT":"0.00000734","DECAY_DATE":null,"ECCENTRICITY":"0.00021770","RA_OF_ASC_NODE":"147.4327","MEAN_MOTION":"15.06397309"},{"BSTAR":"0.00001692200000","OBJECT_NAME":"STARLINK-2739","TLE_LINE1":"1 48639U 21044B   22239.19676285 -.00000030  00000-0  16922-4 0  9991","CENTER_NAME":"EARTH","REF_FRAME":"TEME","INCLINATION":"53.0555","PERIAPSIS":"546.034","MEAN_ANOMALY":"295.5157","OBJECT_ID":"2021-044B","PERIOD":"95.592","ARG_OF_PERICENTER":"64.6010","MEAN_MOTION_DDOT":"0.0000000000000","COUNTRY_CODE":"US","RA_OF_ASC_NODE":"149.8811","ECCENTRICITY":"0.00017190","MEAN_MOTION":"15.06396377","RCS_SIZE":"LARGE","OBJECT_TYPE":"PAYLOAD","GP_ID":"211104196","CLASSIFICATION_TYPE":"U","DECAY_DATE":null,"APOAPSIS":"548.415","MEAN_MOTION_DOT":"-0.00000030","LAUNCH_DATE":"2021-05-26","ELEMENT_SET_NO":"999","NORAD_CAT_ID":"48639","EPHEMERIS_TYPE":"0","FILE":"3548622","REV_AT_EPOCH":"6927","SITE":"AFETR","SEMIMAJOR_AXIS":"6925.360","TIME_SYSTEM":"UTC","MEAN_ELEMENT_THEORY":"SGP4","TLE_LINE2":"2 48639  53.0555 149.8811 0001719  64.6010 295.5157 15.06396377 69277","EPOCH":"2022-08-27T04:43:20.310240"},{"SITE":"AFETR","TIME_SYSTEM":"UTC","SEMIMAJOR_AXIS":"6925.368","MEAN_ELEMENT_THEORY":"SGP4","LAUNCH_DATE":"2021-05-26","ELEMENT_SET_NO":"999","NORAD_CAT_ID":"48640","REV_AT_EPOCH":"6926","FILE":"3548622","EPHEMERIS_TYPE":"0","TLE_LINE2":"2 48640  53.0554 150.1816 0001638  74.8122 285.3048 15.06393812 69261","EPOCH":"2022-08-27T04:34:08.018112","MEAN_MOTION":"15.06393812","RA_OF_ASC_NODE":"150.1816","ECCENTRICITY":"0.00016380","DECAY_DATE":null,"APOAPSIS":"548.367","MEAN_MOTION_DOT":"-0.00000077","RCS_SIZE":"LARGE","OBJECT_TYPE":"PAYLOAD","CLASSIFICATION_TYPE":"U","GP_ID":"211102949","PERIAPSIS":"546.098","MEAN_ANOMALY":"285.3048","REF_FRAME":"TEME","INCLINATION":"53.0554","ARG_OF_PERICENTER":"74.8122","PERIOD":"95.593","OBJECT_ID":"2021-044C","MEAN_MOTION_DDOT":"0.0000000000000","COUNTRY_CODE":"US","OBJECT_NAME":"STARLINK-2736","TLE_LINE1":"1 48640U 21044C   22239.19037058 -.00000077  00000-0  13759-4 0  9998","BSTAR":"0.00001375900000","CENTER_NAME":"EARTH"},{"APOAPSIS":"548.347","MEAN_MOTION_DOT":"-0.00000892","DECAY_DATE":null,"GP_ID":"211102696","CLASSIFICATION_TYPE":"U","OBJECT_TYPE":"PAYLOAD","RCS_SIZE":"LARGE","MEAN_MOTION":"15.06400143","ECCENTRICITY":"0.00016370","RA_OF_ASC_NODE":"155.1454","EPOCH":"2022-08-27T03:16:27.058656","TLE_LINE2":"2 48641  53.0542 155.1454 0001637  77.4944 282.6228 15.06400143 69190","MEAN_ELEMENT_THEORY":"SGP4","SITE":"AFETR","SEMIMAJOR_AXIS":"6925.348","TIME_SYSTEM":"UTC","FILE":"3548622","EPHEMERIS_TYPE":"0","REV_AT_EPOCH":"6919","NORAD_CAT_ID":"48641","ELEMENT_SET_NO":"999","LAUNCH_DATE":"2021-05-26","CENTER_NAME":"EARTH","TLE_LINE1":"1 48641U 21044D   22239.13642429 -.00000892  00000-0 -40970-4 0  9998","OBJECT_NAME":"STARLINK-2754","BSTAR":"-0.00004097000000","MEAN_MOTION_DDOT":"0.0000000000000","COUNTRY_CODE":"US","ARG_OF_PERICENTER":"77.4944","PERIOD":"95.592","OBJECT_ID":"2021-044D","MEAN_ANOMALY":"282.6228","PERIAPSIS":"546.079","INCLINATION":"53.0542","REF_FRAME":"TEME"},{"BSTAR":"0.00006250400000","TLE_LINE1":"1 48642U 21044E   22239.15022665  .00000649  00000-0  62504-4 0  9990","OBJECT_NAME":"STARLINK-2646","CENTER_NAME":"EARTH","INCLINATION":"53.0534","REF_FRAME":"TEME","MEAN_ANOMALY":"286.9510","PERIAPSIS":"546.108","COUNTRY_CODE":"US","MEAN_MOTION_DDOT":"0.0000000000000","PERIOD":"95.593","ARG_OF_PERICENTER":"73.1657","OBJECT_ID":"2021-044E","ECCENTRICITY":"0.00016240","RA_OF_ASC_NODE":"155.0704","MEAN_MOTION":"15.06393826","GP_ID":"211103949","CLASSIFICATION_TYPE":"U","RCS_SIZE":"LARGE","OBJECT_TYPE":"PAYLOAD","APOAPSIS":"548.357","MEAN_MOTION_DOT":"0.00000649","DECAY_DATE":null,"FILE":"3548622","REV_AT_EPOCH":"6919","EPHEMERIS_TYPE":"0","NORAD_CAT_ID":"48642","ELEMENT_SET_NO":"999","LAUNCH_DATE":"2021-05-26","MEAN_ELEMENT_THEORY":"SGP4","SEMIMAJOR_AXIS":"6925.367","SITE":"AFETR","TIME_SYSTEM":"UTC","EPOCH":"2022-08-27T03:36:19.582560","TLE_LINE2":"2 48642  53.0534 155.0704 0001624  73.1657 286.9510 15.06393826 69199"},{"TLE_LINE2":"2 48643  53.0562 155.1617 0001425  77.0644 283.0504 15.06393558 69196","EPOCH":"2022-08-27T03:09:47.382624","NORAD_CAT_ID":"48643","FILE":"3548622","EPHEMERIS_TYPE":"0","REV_AT_EPOCH":"6919","LAUNCH_DATE":"2021-05-26","ELEMENT_SET_NO":"999","MEAN_ELEMENT_THEORY":"SGP4","SITE":"AFETR","TIME_SYSTEM":"UTC","SEMIMAJOR_AXIS":"6925.368","CLASSIFICATION_TYPE":"U","GP_ID":"211103696","OBJECT_TYPE":"PAYLOAD","RCS_SIZE":"LARGE","MEAN_MOTION_DOT":"0.00000646","APOAPSIS":"548.220","DECAY_DATE":null,"ECCENTRICITY":"0.00014250","RA_OF_ASC_NODE":"155.1617","MEAN_MOTION":"15.06393558","COUNTRY_CODE":"US","MEAN_MOTION_DDOT":"0.0000000000000","PERIOD":"95.593","ARG_OF_PERICENTER":"77.0644","OBJECT_ID":"2021-044F","INCLINATION":"53.0562","REF_FRAME":"TEME","MEAN_ANOMALY":"283.0504","PERIAPSIS":"546.246","CENTER_NAME":"EARTH","BSTAR":"0.00006225000000","OBJECT_NAME":"STARLINK-2704","TLE_LINE1":"1 48643U 21044F   22239.13179841  .00000646  00000-0  62250-4 0  9993"},{"COUNTRY_CODE":"US","MEAN_MOTION_DDOT":"0.0000000000000","ARG_OF_PERICENTER":"76.2607","PERIOD":"95.592","OBJECT_ID":"2021-044G","PERIAPSIS":"546.097","MEAN_ANOMALY":"283.8563","INCLINATION":"53.0548","REF_FRAME":"TEME","CENTER_NAME":"EARTH","OBJECT_NAME":"STARLINK-2695","TLE_LINE1":"1 48644U 21044G   22239.72617898 -.00000151  00000-0  87917-5 0  9998","BSTAR":"0.00000879170000","TLE_LINE2":"2 48644  53.0548 152.5004 0001626  76.2607 283.8563 15.06396883 69282","EPOCH":"2022-08-27T17:25:41.863872","MEAN_ELEMENT_THEORY":"SGP4","TIME_SYSTEM":"UTC","SITE":"AFETR","SEMIMAJOR_AXIS":"6925.358","NORAD_CAT_ID":"48644","REV_AT_EPOCH":"6928","FILE":"3548882","EPHEMERIS_TYPE":"0","LAUNCH_DATE":"2021-05-26","ELEMENT_SET_NO":"999","APOAPSIS":"548.349","MEAN_MOTION_DOT":"-0.00000151","DECAY_DATE":null,"CLASSIFICATION_TYPE":"U","GP_ID":"211135950","RCS_SIZE":"LARGE","OBJECT_TYPE":"PAYLOAD","MEAN_MOTION":"15.06396883","ECCENTRICITY":"0.00016260","RA_OF_ASC_NODE":"152.5004"},{"CENTER_NAME":"EARTH","OBJECT_NAME":"STARLINK-2733","TLE_LINE1":"1 48645U 21044H   22239.78883512  .00001291  00000-0  10555-3 0  9990","BSTAR":"0.00010555000000","COUNTRY_CODE":"US","MEAN_MOTION_DDOT":"0.0000000000000","PERIOD":"95.592","OBJECT_ID":"2021-044H","ARG_OF_PERICENTER":"66.6152","MEAN_ANOMALY":"293.5010","PERIAPSIS":"546.080","INCLINATION":"53.0555","REF_FRAME":"TEME","APOAPSIS":"548.358","MEAN_MOTION_DOT":"0.00001291","DECAY_DATE":null,"GP_ID":"211136170","CLASSIFICATION_TYPE":"U","OBJECT_TYPE":"PAYLOAD","RCS_SIZE":"LARGE","MEAN_MOTION":"15.06398256","ECCENTRICITY":"0.00016450","RA_OF_ASC_NODE":"152.2245","TLE_LINE2":"2 48645  53.0555 152.2245 0001645  66.6152 293.5010 15.06398256 69296","EPOCH":"2022-08-27T18:55:55.354368","MEAN_ELEMENT_THEORY":"SGP4","TIME_SYSTEM":"UTC","SITE":"AFETR","SEMIMAJOR_AXIS":"6925.354","NORAD_CAT_ID":"48645","EPHEMERIS_TYPE":"0","FILE":"3548882","REV_AT_EPOCH":"6929","LAUNCH_DATE":"2021-05-26","ELEMENT_SET_NO":"999"},{"RA_OF_ASC_NODE":"151.6315","ECCENTRICITY":"0.00015320","MEAN_MOTION":"15.06409615","RCS_SIZE":"LARGE","OBJECT_TYPE":"PAYLOAD","GP_ID":"211134956","CLASSIFICATION_TYPE":"U","DECAY_DATE":null,"APOAPSIS":"548.245","MEAN_MOTION_DOT":"0.00000805","ELEMENT_SET_NO":"999","LAUNCH_DATE":"2021-05-26","FILE":"3548882","REV_AT_EPOCH":"6931","EPHEMERIS_TYPE":"0","NORAD_CAT_ID":"48646","SITE":"AFETR","TIME_SYSTEM":"UTC","SEMIMAJOR_AXIS":"6925.319","MEAN_ELEMENT_THEORY":"SGP4","EPOCH":"2022-08-27T22:01:40.872288","TLE_LINE2":"2 48646  53.0555 151.6315 0001532  88.1783 271.9381 15.06409615 69318","BSTAR":"0.00007291200000","TLE_LINE1":"1 48646U 21044J   22239.91783417  .00000805  00000-0  72912-4 0  9995","OBJECT_NAME":"STARLINK-2732","CENTER_NAME":"EARTH","REF_FRAME":"TEME","INCLINATION":"53.0555","PERIAPSIS":"546.123","MEAN_ANOMALY":"271.9381","OBJECT_ID":"2021-044J","PERIOD":"95.592","ARG_OF_PERICENTER":"88.1783","COUNTRY_CODE":"US","MEAN_MOTION_DDOT":"0.0000000000000"},{"EPOCH":"2022-08-27T21:56:23.199360","TLE_LINE2":"2 48647  53.0546 151.6540 0001468  72.9273 287.1877 15.06395532 69313","ELEMENT_SET_NO":"999","LAUNCH_DATE":"2021-05-26","EPHEMERIS_TYPE":"0","FILE":"3548882","REV_AT_EPOCH":"6931","NORAD_CAT_ID":"48647","SEMIMAJOR_AXIS":"6925.362","SITE":"AFETR","TIME_SYSTEM":"UTC","MEAN_ELEMENT_THEORY":"SGP4","RCS_SIZE":"LARGE","OBJECT_TYPE":"PAYLOAD","CLASSIFICATION_TYPE":"U","GP_ID":"211135707","DECAY_DATE":null,"MEAN_MOTION_DOT":"0.00000133","APOAPSIS":"548.244","RA_OF_ASC_NODE":"151.6540","ECCENTRICITY":"0.00014680","MEAN_MOTION":"15.06395532","ARG_OF_PERICENTER":"72.9273","PERIOD":"95.592","OBJECT_ID":"2021-044K","COUNTRY_CODE":"US","MEAN_MOTION_DDOT":"0.0000000000000","REF_FRAME":"TEME","INCLINATION":"53.0546","PERIAPSIS":"546.211","MEAN_ANOMALY":"287.1877","CENTER_NAME":"EARTH","BSTAR":"0.00002782500000","TLE_LINE1":"1 48647U 21044K   22239.91415740  .00000133  00000-0  27825-4 0  9994","OBJECT_NAME":"STARLINK-2691"}];
